[{"OBJECT_NAME":"SES-2","OBJECT_ID":"2011-049A","EPOCH":"2026-03-07T08:58:38.665632","MEAN_MOTION":1.00271713,"ECCENTRICITY":0.00028992,"INCLINATION":0.0267,"RA_OF_ASC_NODE":75.5117,"ARG_OF_PERICENTER":273.9212,"MEAN_ANOMALY":223.2934,"EPHEMERIS_TYPE":0,"CLASSIFICATION_TYPE":"U","NORAD_CAT_ID":37809,"ELEMENT_SET_NO":999,"REV_AT_EPOCH":5294,"BSTAR":0,"MEAN_MOTION_DOT":-1.97e-6,"MEAN_MOTION_DDOT":0},{"OBJECT_NAME":"QUETZSAT 1","OBJECT_ID":"2011-054A","EPOCH":"2026-03-07T08:18:38.763936","MEAN_MOTION":1.00272562,"ECCENTRICITY":0.00027077,"INCLINATION":0.0472,"RA_OF_ASC_NODE":293.1442,"ARG_OF_PERICENTER":60.4459,"MEAN_ANOMALY":219.1194,"EPHEMERIS_TYPE":0,"CLASSIFICATION_TYPE":"U","NORAD_CAT_ID":37826,"ELEMENT_SET_NO":999,"REV_AT_EPOCH":4885,"BSTAR":0,"MEAN_MOTION_DOT":-2.43e-6,"MEAN_MOTION_DDOT":0},{"OBJECT_NAME":"SES-4","OBJECT_ID":"2012-007A","EPOCH":"2026-03-07T10:26:38.707008","MEAN_MOTION":1.00278702,"ECCENTRICITY":0.00025726,"INCLINATION":0.0338,"RA_OF_ASC_NODE":65.5295,"ARG_OF_PERICENTER":281.252,"MEAN_ANOMALY":313.0308,"EPHEMERIS_TYPE":0,"CLASSIFICATION_TYPE":"U","NORAD_CAT_ID":38087,"ELEMENT_SET_NO":999,"REV_AT_EPOCH":5120,"BSTAR":0,"MEAN_MOTION_DOT":-1.69e-6,"MEAN_MOTION_DDOT":0},{"OBJECT_NAME":"SES-5","OBJECT_ID":"2012-036A","EPOCH":"2026-03-07T06:22:38.729856","MEAN_MOTION":1.00271655,"ECCENTRICITY":0.00019036,"INCLINATION":0.0605,"RA_OF_ASC_NODE":309.0724,"ARG_OF_PERICENTER":34.6011,"MEAN_ANOMALY":281.9281,"EPHEMERIS_TYPE":0,"CLASSIFICATION_TYPE":"U","NORAD_CAT_ID":38652,"ELEMENT_SET_NO":999,"REV_AT_EPOCH":4343,"BSTAR":0,"MEAN_MOTION_DOT":3.1e-7,"MEAN_MOTION_DDOT":0},{"OBJECT_NAME":"ASTRA 2F","OBJECT_ID":"2012-051A","EPOCH":"2026-03-07T07:12:29.060640","MEAN_MOTION":1.00269022,"ECCENTRICITY":0.00026649,"INCLINATION":0.0902,"RA_OF_ASC_NODE":259.6407,"ARG_OF_PERICENTER":18.222,"MEAN_ANOMALY":23.4704,"EPHEMERIS_TYPE":0,"CLASSIFICATION_TYPE":"U","NORAD_CAT_ID":38778,"ELEMENT_SET_NO":999,"REV_AT_EPOCH":4011,"BSTAR":0,"MEAN_MOTION_DOT":1.48e-6,"MEAN_MOTION_DDOT":0},{"OBJECT_NAME":"SES-6","OBJECT_ID":"2013-026A","EPOCH":"2026-03-07T07:02:02.645088","MEAN_MOTION":1.0027143,"ECCENTRICITY":0.000187,"INCLINATION":0.0597,"RA_OF_ASC_NODE":290.9562,"ARG_OF_PERICENTER":69.8943,"MEAN_ANOMALY":229.1397,"EPHEMERIS_TYPE":0,"CLASSIFICATION_TYPE":"U","NORAD_CAT_ID":39172,"ELEMENT_SET_NO":999,"REV_AT_EPOCH":4670,"BSTAR":0,"MEAN_MOTION_DOT":-2.63e-6,"MEAN_MOTION_DDOT":0},{"OBJECT_NAME":"O3B FM5","OBJECT_ID":"2013-031A","EPOCH":"2026-03-07T02:18:10.843776","MEAN_MOTION":5.00116497,"ECCENTRICITY":0.0003324,"INCLINATION":0.0982,"RA_OF_ASC_NODE":13.3169,"ARG_OF_PERICENTER":323.7008,"MEAN_ANOMALY":22.9625,"EPHEMERIS_TYPE":0,"CLASSIFICATION_TYPE":"U","NORAD_CAT_ID":39188,"ELEMENT_SET_NO":999,"REV_AT_EPOCH":23193,"BSTAR":0,"MEAN_MOTION_DOT":-2.6e-7,"MEAN_MOTION_DDOT":0},{"OBJECT_NAME":"O3B FM4","OBJECT_ID":"2013-031B","EPOCH":"2026-03-06T14:46:14.636352","MEAN_MOTION":5.00115248,"ECCENTRICITY":0.00050854,"INCLINATION":0.0552,"RA_OF_ASC_NODE":345.1128,"ARG_OF_PERICENTER":9.6879,"MEAN_ANOMALY":5.1888,"EPHEMERIS_TYPE":0,"CLASSIFICATION_TYPE":"U","NORAD_CAT_ID":39189,"ELEMENT_SET_NO":999,"REV_AT_EPOCH":23191,"BSTAR":0,"MEAN_MOTION_DOT":-2.6e-7,"MEAN_MOTION_DDOT":0},{"OBJECT_NAME":"O3B FM2","OBJECT_ID":"2013-031C","EPOCH":"2026-03-07T01:56:30.496128","MEAN_MOTION":5.00116011,"ECCENTRICITY":0.00028147,"INCLINATION":0.0561,"RA_OF_ASC_NODE":338.8755,"ARG_OF_PERICENTER":5.7081,"MEAN_ANOMALY":15.4029,"EPHEMERIS_TYPE":0,"CLASSIFICATION_TYPE":"U","NORAD_CAT_ID":39190,"ELEMENT_SET_NO":999,"REV_AT_EPOCH":23200,"BSTAR":0,"MEAN_MOTION_DOT":-2.6e-7,"MEAN_MOTION_DDOT":0},{"OBJECT_NAME":"O3B PFM","OBJECT_ID":"2013-031D","EPOCH":"2026-03-06T02:17:37.197024","MEAN_MOTION":5.00115906,"ECCENTRICITY":0.00051477,"INCLINATION":0.0668,"RA_OF_ASC_NODE":7.2787,"ARG_OF_PERICENTER":352.3292,"MEAN_ANOMALY":0.3862,"EPHEMERIS_TYPE":0,"CLASSIFICATION_TYPE":"U","NORAD_CAT_ID":39191,"ELEMENT_SET_NO":999,"REV_AT_EPOCH":23151,"BSTAR":0,"MEAN_MOTION_DOT":-2.6e-7,"MEAN_MOTION_DDOT":0},{"OBJECT_NAME":"ASTRA 2E","OBJECT_ID":"2013-056A","EPOCH":"2026-03-07T07:12:29.060640","MEAN_MOTION":1.00273478,"ECCENTRICITY":0.00021826,"INCLINATION":0.074,"RA_OF_ASC_NODE":35.6558,"ARG_OF_PERICENTER":305.8171,"MEAN_ANOMALY":320.1315,"EPHEMERIS_TYPE":0,"CLASSIFICATION_TYPE":"U","NORAD_CAT_ID":39285,"ELEMENT_SET_NO":999,"REV_AT_EPOCH":4539,"BSTAR":0,"MEAN_MOTION_DOT":1.48e-6,"MEAN_MOTION_DDOT":0},{"OBJECT_NAME":"SES-8","OBJECT_ID":"2013-071A","EPOCH":"2026-03-07T14:44:08.718720","MEAN_MOTION":1.00272149,"ECCENTRICITY":0.00017958,"INCLINATION":0.05,"RA_OF_ASC_NODE":270.4016,"ARG_OF_PERICENTER":108.1724,"MEAN_ANOMALY":102.7744,"EPHEMERIS_TYPE":0,"CLASSIFICATION_TYPE":"U","NORAD_CAT_ID":39460,"ELEMENT_SET_NO":999,"REV_AT_EPOCH":4342,"BSTAR":0,"MEAN_MOTION_DOT":-2.71e-6,"MEAN_MOTION_DDOT":0},{"OBJECT_NAME":"ASTRA 5B","OBJECT_ID":"2014-011B","EPOCH":"2026-03-07T06:06:38.818944","MEAN_MOTION":1.00272553,"ECCENTRICITY":0.0003996,"INCLINATION":0.0851,"RA_OF_ASC_NODE":301.39,"ARG_OF_PERICENTER":29.0822,"MEAN_ANOMALY":309.6237,"EPHEMERIS_TYPE":0,"CLASSIFICATION_TYPE":"U","NORAD_CAT_ID":39617,"ELEMENT_SET_NO":999,"REV_AT_EPOCH":4364,"BSTAR":0,"MEAN_MOTION_DOT":1.35e-6,"MEAN_MOTION_DDOT":0},{"OBJECT_NAME":"O3B FM3","OBJECT_ID":"2014-038A","EPOCH":"2026-03-07T03:52:46.195392","MEAN_MOTION":5.00115584,"ECCENTRICITY":6.43e-5,"INCLINATION":0.053,"RA_OF_ASC_NODE":353.4863,"ARG_OF_PERICENTER":57.477,"MEAN_ANOMALY":309.0375,"EPHEMERIS_TYPE":0,"CLASSIFICATION_TYPE":"U","NORAD_CAT_ID":40079,"ELEMENT_SET_NO":999,"REV_AT_EPOCH":20794,"BSTAR":0,"MEAN_MOTION_DOT":-2.6e-7,"MEAN_MOTION_DDOT":0},{"OBJECT_NAME":"O3B FM7","OBJECT_ID":"2014-038B","EPOCH":"2026-03-02T07:26:54.646080","MEAN_MOTION":5.00115622,"ECCENTRICITY":0.00044887,"INCLINATION":0.0588,"RA_OF_ASC_NODE":348.9474,"ARG_OF_PERICENTER":339.4059,"MEAN_ANOMALY":31.6123,"EPHEMERIS_TYPE":0,"CLASSIFICATION_TYPE":"U","NORAD_CAT_ID":40080,"ELEMENT_SET_NO":999,"REV_AT_EPOCH":21253,"BSTAR":0,"MEAN_MOTION_DOT":-2.9e-7,"MEAN_MOTION_DDOT":0},{"OBJECT_NAME":"O3B FM6","OBJECT_ID":"2014-038C","EPOCH":"2026-03-07T03:14:01.467744","MEAN_MOTION":5.00115738,"ECCENTRICITY":0.0002661,"INCLINATION":0.0549,"RA_OF_ASC_NODE":351.2755,"ARG_OF_PERICENTER":351.9504,"MEAN_ANOMALY":16.7604,"EPHEMERIS_TYPE":0,"CLASSIFICATION_TYPE":"U","NORAD_CAT_ID":40081,"ELEMENT_SET_NO":999,"REV_AT_EPOCH":21272,"BSTAR":0,"MEAN_MOTION_DOT":-2.6e-7,"MEAN_MOTION_DDOT":0},{"OBJECT_NAME":"O3B FM8","OBJECT_ID":"2014-038D","EPOCH":"2026-03-06T09:19:25.861728","MEAN_MOTION":5.00116014,"ECCENTRICITY":0.00026544,"INCLINATION":0.0558,"RA_OF_ASC_NODE":350.6402,"ARG_OF_PERICENTER":356.7405,"MEAN_ANOMALY":12.6073,"EPHEMERIS_TYPE":0,"CLASSIFICATION_TYPE":"U","NORAD_CAT_ID":40082,"ELEMENT_SET_NO":999,"REV_AT_EPOCH":21280,"BSTAR":0,"MEAN_MOTION_DOT":-2.6e-7,"MEAN_MOTION_DDOT":0}]
